STARLINK-35511          
1 66344U 25253AB  25332.83336806 -.00051450  00000+0 -87657-3 0  9994
2 66344  42.9995  65.9412 0001792 271.1774 151.0673 15.50589436  4696
STARLINK-35440          
1 66345U 25253AC  25332.83336806 -.00062949  00000+0 -10751-2 0  9990
2 66345  42.9996  65.9488 0001649 275.7257 142.6826 15.50596523  4699
STARLINK-35482          
1 66346U 25253AD  25332.83336806 -.00065415  00000+0 -11178-2 0  9996
2 66346  42.9995  65.9453 0001439 270.7449 149.5822 15.50597114  4796
STARLINK-35438          
1 66347U 25253AE  25332.83336806 -.00049012  00000+0 -83457-3 0  9992
2 66347  42.9995  65.9347 0001734 272.4057 151.7589 15.50587313  4695
STARLINK-35849          
1 66348U 25254A   25332.53062936  .00141029  00000+0  94991-3 0  9995
2 66348  53.1590 345.4924 0001455  97.9515 262.1670 15.74220164  4600
STARLINK-35848          
1 66349U 25254B   25332.53028408  .00193156  00000+0  12937-2 0  9999
2 66349  53.1589 345.4898 0001749  91.2366 268.8854 15.74177897  3448
STARLINK-35829          
1 66350U 25254C   25332.59345208  .00039479  00000+0  27338-3 0  9996
2 66350  53.1589 345.1720 0000735  87.4870 272.6234 15.74121410  3458
STARLINK-35828          
1 66351U 25254D   25332.52962519  .00224476  00000+0  14874-2 0  9993
2 66351  53.1590 345.4844 0002368  77.4517 282.6768 15.74329384  3444
STARLINK-35850          
1 66352U 25254E   25332.52927578  .00080784  00000+0  54921-3 0  9990
2 66352  53.1590 345.4817 0001537  92.3746 267.7449 15.74247557  3443
STARLINK-35869          
1 66353U 25254F   25332.52894133  .00200868  00000+0  13403-2 0  9997
2 66353  53.1587 345.4796 0000788 116.6640 243.4460 15.74242155  3449
STARLINK-35895          
1 66354U 25254G   25332.59206611  .00193117  00000+0  12867-2 0  9994
2 66354  53.1588 345.1606 0000886 101.0940 259.0179 15.74300699  3457
STARLINK-35861          
1 66355U 25254H   25332.52826233  .00217395  00000+0  14471-2 0  9994
2 66355  53.1586 345.4749 0001246  94.8520 265.2643 15.74245455  3443
