CCSDS_OMM_VERS = 2.0
CREATION_DATE  = 
ORIGINATOR     = 

OBJECT_NAME    = STARLINK-35511
OBJECT_ID      = 2025-253AB
CENTER_NAME    = EARTH
REF_FRAME      = TEME
TIME_SYSTEM    = UTC
MEAN_ELEMENT_THEORY = SGP/SGP4

EPOCH          = 2025-11-28T20:00:03.000384
MEAN_MOTION    = 15.50589436
ECCENTRICITY   = .0001792
INCLINATION    = 42.9995
RA_OF_ASC_NODE = 65.9412
ARG_OF_PERICENTER = 271.1774
MEAN_ANOMALY   = 151.0673

EPHEMERIS_TYPE = 0
CLASSIFICATION_TYPE = U
NORAD_CAT_ID   = 66344
ELEMENT_SET_NO = 999
REV_AT_EPOCH   = 469
BSTAR          = -.87657E-3
MEAN_MOTION_DOT = -.5145E-3
MEAN_MOTION_DDOT = 0

CCSDS_OMM_VERS = 2.0
CREATION_DATE  = 
ORIGINATOR     = 

OBJECT_NAME    = STARLINK-35440
OBJECT_ID      = 2025-253AC
CENTER_NAME    = EARTH
REF_FRAME      = TEME
TIME_SYSTEM    = UTC
MEAN_ELEMENT_THEORY = SGP/SGP4

EPOCH          = 2025-11-28T20:00:03.000384
MEAN_MOTION    = 15.50596523
ECCENTRICITY   = .0001649
INCLINATION    = 42.9996
RA_OF_ASC_NODE = 65.9488
ARG_OF_PERICENTER = 275.7257
MEAN_ANOMALY   = 142.6826

EPHEMERIS_TYPE = 0
CLASSIFICATION_TYPE = U
NORAD_CAT_ID   = 66345
ELEMENT_SET_NO = 999
REV_AT_EPOCH   = 469
BSTAR          = -.10751E-2
MEAN_MOTION_DOT = -.62949E-3
MEAN_MOTION_DDOT = 0

CCSDS_OMM_VERS = 2.0
CREATION_DATE  = 
ORIGINATOR     = 

OBJECT_NAME    = STARLINK-35482
OBJECT_ID      = 2025-253AD
CENTER_NAME    = EARTH
REF_FRAME      = TEME
TIME_SYSTEM    = UTC
MEAN_ELEMENT_THEORY = SGP/SGP4

EPOCH          = 2025-11-28T20:00:03.000384
MEAN_MOTION    = 15.50597114
ECCENTRICITY   = .0001439
INCLINATION    = 42.9995
RA_OF_ASC_NODE = 65.9453
ARG_OF_PERICENTER = 270.7449
MEAN_ANOMALY   = 149.5822

EPHEMERIS_TYPE = 0
CLASSIFICATION_TYPE = U
NORAD_CAT_ID   = 66346
ELEMENT_SET_NO = 999
REV_AT_EPOCH   = 479
BSTAR          = -.11178E-2
MEAN_MOTION_DOT = -.65415E-3
MEAN_MOTION_DDOT = 0

CCSDS_OMM_VERS = 2.0
CREATION_DATE  = 
ORIGINATOR     = 

OBJECT_NAME    = STARLINK-35438
OBJECT_ID      = 2025-253AE
CENTER_NAME    = EARTH
REF_FRAME      = TEME
TIME_SYSTEM    = UTC
MEAN_ELEMENT_THEORY = SGP/SGP4

EPOCH          = 2025-11-28T20:00:03.000384
MEAN_MOTION    = 15.50587313
ECCENTRICITY   = .0001734
INCLINATION    = 42.9995
RA_OF_ASC_NODE = 65.9347
ARG_OF_PERICENTER = 272.4057
MEAN_ANOMALY   = 151.7589

EPHEMERIS_TYPE = 0
CLASSIFICATION_TYPE = U
NORAD_CAT_ID   = 66347
ELEMENT_SET_NO = 999
REV_AT_EPOCH   = 469
BSTAR          = -.83457E-3
MEAN_MOTION_DOT = -.49012E-3
MEAN_MOTION_DDOT = 0

CCSDS_OMM_VERS = 2.0
CREATION_DATE  = 
ORIGINATOR     = 

OBJECT_NAME    = STARLINK-35849
OBJECT_ID      = 2025-254A
CENTER_NAME    = EARTH
REF_FRAME      = TEME
TIME_SYSTEM    = UTC
MEAN_ELEMENT_THEORY = SGP/SGP4

EPOCH          = 2025-11-28T12:44:06.376704
MEAN_MOTION    = 15.74220164
ECCENTRICITY   = .00014552
INCLINATION    = 53.1590
RA_OF_ASC_NODE = 345.4924
ARG_OF_PERICENTER = 97.9515
MEAN_ANOMALY   = 262.1670

EPHEMERIS_TYPE = 0
CLASSIFICATION_TYPE = U
NORAD_CAT_ID   = 66348
ELEMENT_SET_NO = 999
REV_AT_EPOCH   = 460
BSTAR          = .94990927E-3
MEAN_MOTION_DOT = .141029E-2
MEAN_MOTION_DDOT = 0

CCSDS_OMM_VERS = 2.0
CREATION_DATE  = 
ORIGINATOR     = 

OBJECT_NAME    = STARLINK-35848
OBJECT_ID      = 2025-254B
CENTER_NAME    = EARTH
REF_FRAME      = TEME
TIME_SYSTEM    = UTC
MEAN_ELEMENT_THEORY = SGP/SGP4

EPOCH          = 2025-11-28T12:43:36.544512
MEAN_MOTION    = 15.74177897
ECCENTRICITY   = .00017499
INCLINATION    = 53.1589
RA_OF_ASC_NODE = 345.4898
ARG_OF_PERICENTER = 91.2366
MEAN_ANOMALY   = 268.8854

EPHEMERIS_TYPE = 0
CLASSIFICATION_TYPE = U
NORAD_CAT_ID   = 66349
ELEMENT_SET_NO = 999
REV_AT_EPOCH   = 344
BSTAR          = .12937386E-2
MEAN_MOTION_DOT = .193156E-2
MEAN_MOTION_DDOT = 0

CCSDS_OMM_VERS = 2.0
CREATION_DATE  = 
ORIGINATOR     = 

OBJECT_NAME    = STARLINK-35829
OBJECT_ID      = 2025-254C
CENTER_NAME    = EARTH
REF_FRAME      = TEME
TIME_SYSTEM    = UTC
MEAN_ELEMENT_THEORY = SGP/SGP4

EPOCH          = 2025-11-28T14:14:34.259712
MEAN_MOTION    = 15.74121410
ECCENTRICITY   = .00007356
INCLINATION    = 53.1589
RA_OF_ASC_NODE = 345.1720
ARG_OF_PERICENTER = 87.4870
MEAN_ANOMALY   = 272.6234

EPHEMERIS_TYPE = 0
CLASSIFICATION_TYPE = U
NORAD_CAT_ID   = 66350
ELEMENT_SET_NO = 999
REV_AT_EPOCH   = 345
BSTAR          = .27338089E-3
MEAN_MOTION_DOT = .39479E-3
MEAN_MOTION_DDOT = 0

CCSDS_OMM_VERS = 2.0
CREATION_DATE  = 
ORIGINATOR     = 

OBJECT_NAME    = STARLINK-35828
OBJECT_ID      = 2025-254D
CENTER_NAME    = EARTH
REF_FRAME      = TEME
TIME_SYSTEM    = UTC
MEAN_ELEMENT_THEORY = SGP/SGP4

EPOCH          = 2025-11-28T12:42:39.616416
MEAN_MOTION    = 15.74329384
ECCENTRICITY   = .00023686
INCLINATION    = 53.1590
RA_OF_ASC_NODE = 345.4844
ARG_OF_PERICENTER = 77.4517
MEAN_ANOMALY   = 282.6768

EPHEMERIS_TYPE = 0
CLASSIFICATION_TYPE = U
NORAD_CAT_ID   = 66351
ELEMENT_SET_NO = 999
REV_AT_EPOCH   = 344
BSTAR          = .14874352E-2
MEAN_MOTION_DOT = .224476E-2
MEAN_MOTION_DDOT = 0

CCSDS_OMM_VERS = 2.0
CREATION_DATE  = 
ORIGINATOR     = 

OBJECT_NAME    = STARLINK-35850
OBJECT_ID      = 2025-254E
CENTER_NAME    = EARTH
REF_FRAME      = TEME
TIME_SYSTEM    = UTC
MEAN_ELEMENT_THEORY = SGP/SGP4

EPOCH          = 2025-11-28T12:42:09.427392
MEAN_MOTION    = 15.74247557
ECCENTRICITY   = .00015373
INCLINATION    = 53.1590
RA_OF_ASC_NODE = 345.4817
ARG_OF_PERICENTER = 92.3746
MEAN_ANOMALY   = 267.7449

EPHEMERIS_TYPE = 0
CLASSIFICATION_TYPE = U
NORAD_CAT_ID   = 66352
ELEMENT_SET_NO = 999
REV_AT_EPOCH   = 344
BSTAR          = .54920671E-3
MEAN_MOTION_DOT = .80784E-3
MEAN_MOTION_DDOT = 0

CCSDS_OMM_VERS = 2.0
CREATION_DATE  = 
ORIGINATOR     = 

OBJECT_NAME    = STARLINK-35869
OBJECT_ID      = 2025-254F
CENTER_NAME    = EARTH
REF_FRAME      = TEME
TIME_SYSTEM    = UTC
MEAN_ELEMENT_THEORY = SGP/SGP4

EPOCH          = 2025-11-28T12:41:40.530912
MEAN_MOTION    = 15.74242155
ECCENTRICITY   = .00007888
INCLINATION    = 53.1587
RA_OF_ASC_NODE = 345.4796
ARG_OF_PERICENTER = 116.6640
MEAN_ANOMALY   = 243.4460

EPHEMERIS_TYPE = 0
CLASSIFICATION_TYPE = U
NORAD_CAT_ID   = 66353
ELEMENT_SET_NO = 999
REV_AT_EPOCH   = 344
BSTAR          = .13402719E-2
MEAN_MOTION_DOT = .200868E-2
MEAN_MOTION_DDOT = 0

CCSDS_OMM_VERS = 2.0
CREATION_DATE  = 
ORIGINATOR     = 

OBJECT_NAME    = STARLINK-35895
OBJECT_ID      = 2025-254G
CENTER_NAME    = EARTH
REF_FRAME      = TEME
TIME_SYSTEM    = UTC
MEAN_ELEMENT_THEORY = SGP/SGP4

EPOCH          = 2025-11-28T14:12:34.511904
MEAN_MOTION    = 15.74300699
ECCENTRICITY   = .00008861
INCLINATION    = 53.1588
RA_OF_ASC_NODE = 345.1606
ARG_OF_PERICENTER = 101.0940
MEAN_ANOMALY   = 259.0179

EPHEMERIS_TYPE = 0
CLASSIFICATION_TYPE = U
NORAD_CAT_ID   = 66354
ELEMENT_SET_NO = 999
REV_AT_EPOCH   = 345
BSTAR          = .12866626E-2
MEAN_MOTION_DOT = .193117E-2
MEAN_MOTION_DDOT = 0

CCSDS_OMM_VERS = 2.0
CREATION_DATE  = 
ORIGINATOR     = 

OBJECT_NAME    = STARLINK-35861
OBJECT_ID      = 2025-254H
CENTER_NAME    = EARTH
REF_FRAME      = TEME
TIME_SYSTEM    = UTC
MEAN_ELEMENT_THEORY = SGP/SGP4

EPOCH          = 2025-11-28T12:40:41.865312
MEAN_MOTION    = 15.74245455
ECCENTRICITY   = .00012461
INCLINATION    = 53.1586
RA_OF_ASC_NODE = 345.4749
ARG_OF_PERICENTER = 94.8520
MEAN_ANOMALY   = 265.2643

EPHEMERIS_TYPE = 0
CLASSIFICATION_TYPE = U
NORAD_CAT_ID   = 66355
ELEMENT_SET_NO = 999
REV_AT_EPOCH   = 344
BSTAR          = .14471406E-2
MEAN_MOTION_DOT = .217395E-2
MEAN_MOTION_DDOT = 0

